[Satellite]
VERSION=1.1
NAME=HALOSAT
NICKNAME=HALOSAT
TLE1=1 43549U 98067NX  20157.76963426  .00023814  00000-0  17500-3 0  9997
TLE2=2 43549  51.6361 350.4991 0003078  64.2851 295.8465 15.72971266107973
STATUS=0
